OBJECT_NAME,OBJECT_ID,EPOCH,MEAN_MOTION,ECCENTRICITY,INCLINATION,RA_OF_ASC_NODE,ARG_OF_PERICENTER,MEAN_ANOMALY,EPHEMERIS_TYPE,CLASSIFICATION_TYPE,NORAD_CAT_ID,ELEMENT_SET_NO,REV_AT_EPOCH,BSTAR,MEAN_MOTION_DOT,MEAN_MOTION_DDOT
STARLINK-37577,2026-127K,2026-07-11T22:48:34.915104,15.75235598,.0001577,53.1585,138.9196,347.2327,12.8653,0,U,69452,999,531,.85592E-3,.132619E-2,0
STARLINK-37500,2026-127L,2026-07-11T23:02:09.356064,15.75258705,.0000646,53.1560,138.9787,98.4124,261.6970,0,U,69453,999,531,.14858E-2,.233717E-2,0
STARLINK-37575,2026-127M,2026-07-11T22:42:30.568032,15.75277418,.0001623,53.1573,138.8900,211.7690,148.3232,0,U,69454,999,531,.90882E-3,.141259E-2,0
STARLINK-37642,2026-127N,2026-07-11T10:57:45.684000,15.75261251,.00005653,53.1549,141.5344,72.0121,288.0961,0,U,69455,999,523,.26125506E-2,.420859E-2,0
STARLINK-37513,2026-127P,2026-07-11T23:21:07.493760,15.75322877,.0002341,53.1584,138.3308,29.6689,330.4464,0,U,69456,999,532,.97771E-3,.15253E-2,0
STARLINK-37563,2026-127Q,2026-07-11T09:06:46.971648,15.75341887,.000133,53.1584,141.7568,77.3260,282.7909,0,U,69457,999,522,.13697162E-2,.215729E-2,0
STARLINK-37565,2026-127R,2026-07-12T00:06:51.598368,15.75254691,.0000633,53.1563,138.5389,22.2683,337.8364,0,U,69458,999,532,.96892E-3,.150661E-2,0
STARLINK-37498,2026-127S,2026-07-12T05:07:07.004064,15.75273627,.0001299,53.1555,137.7159,142.1616,217.9496,0,U,69459,999,535,.87287E-3,.13553E-2,0
STARLINK-37384,2026-127T,2026-07-11T21:10:40.786464,15.75373230,.00012836,53.1580,139.2003,122.6778,237.4367,0,U,69460,999,530,.16042146E-2,.254288E-2,0
STARLINK-37707,2026-127U,2026-07-11T05:50:59.648352,15.75290685,.00008886,53.1587,142.3254,74.9556,285.1563,0,U,69461,999,520,.13364467E-2,.209857E-2,0
STARLINK-37525,2026-127V,2026-07-12T00:00:20.054304,15.75225408,.0000879,53.1571,138.5081,70.6826,289.4290,0,U,69462,999,532,.61795E-3,.95099E-3,0
STARLINK-37526,2026-127W,2026-07-12T04:00:01.998720,15.75255441,.0001336,53.1560,137.6324,69.7046,178.7981,0,U,69463,999,609,-.45621E-3,-.70046E-3,0
STARLINK-37574,2026-127X,2026-07-11T05:44:27.540960,15.75287866,.00013108,53.1562,142.2931,45.0410,315.0716,0,U,69464,999,520,.11848959E-2,.185422E-2,0
STARLINK-37535,2026-127Y,2026-07-11T23:53:47.672160,15.75362129,.0001551,53.1568,138.4754,145.3769,214.7353,0,U,69465,999,532,.1604E-2,.254132E-2,0
STARLINK-37583,2026-127Z,2026-07-11T23:15:03.424896,15.75273411,.0001497,53.1572,138.2965,102.0806,258.0382,0,U,69466,999,532,.85187E-3,.1322E-2,0
STARLINK-37546,2026-127AA,2026-07-11T23:47:44.064672,15.75222533,.0001074,53.1562,138.4465,80.6841,279.4301,0,U,69467,999,532,.10356E-2,.161041E-2,0
STARLINK-37532,2026-127AB,2026-07-11T22:55:26.859072,15.75313505,.0001267,53.1596,138.2056,121.4831,238.6313,0,U,69468,999,532,.84849E-3,.131899E-2,0
STARLINK-37708,2026-127AC,2026-07-11T08:33:37.348992,15.75383658,.00051803,53.1585,141.5820,172.2400,187.8702,0,U,69469,999,522,.13495717E-2,.212973E-2,0
STARLINK-37686,2026-127AD,2026-07-12T01:12:33.790176,15.75405507,.0000891,53.1570,138.1005,132.8740,227.2355,0,U,69470,999,533,.16045E-2,.254712E-2,0
STARLINK-37451,2026-127AE,2026-07-12T03:57:42.741792,15.79063196,.0002987,53.1575,136.6527,4.5970,355.5078,0,U,69471,999,536,-.67003E-2,-.1094659E-1,0
DTC TEST OBJECT A,2026-128A,2026-07-11T23:28:53.863680,15.53499886,.0011416,54.9997,190.6573,2.8583,357.2515,0,U,69472,999,508,.94363E-4,.5634E-4,0
DTC TEST OBJECT B,2026-128B,2026-06-27T09:02:13.824960,15.56860342,.0009934,55.0021,257.9040,325.3113,34.7274,0,U,69473,999,280,.3356545E-3,.24134E-3,0
TJS-25,2026-129A,2026-07-11T19:15:44.856000,1.00273302,.0002706,5.9573,330.3205,285.1874,83.3192,0,U,69474,999,31,0,-.36E-5,0
STARLINK-37816,2026-131A,2026-07-12T04:00:01.998720,15.49183896,.0001544,97.2840,214.7480,86.8738,142.8037,0,U,69478,999,602,-.38852E-3,-.21161E-3,0
STARLINK-37878,2026-131B,2026-07-12T04:00:01.998720,15.56990707,.0001338,97.2844,214.7958,118.3584,215.7024,0,U,69479,999,487,-.39987E-1,-.2504732E-1,0
STARLINK-37817,2026-131C,2026-07-12T04:00:01.998720,15.56495668,.0001111,97.2846,214.8152,88.2636,290.0344,0,U,69480,999,602,-.40077E-1,-.2469373E-1,0
STARLINK-37727,2026-131D,2026-07-12T04:00:01.998720,15.49169104,.0001018,97.2836,214.7501,106.5172,127.5189,0,U,69481,999,602,-.38771E-3,-.21105E-3,0
STARLINK-37814,2026-131E,2026-07-12T04:00:01.998720,15.56004430,.0001267,97.2840,214.8125,90.9626,281.4222,0,U,69482,999,602,-.406E-1,-.2458064E-1,0
STARLINK-37869,2026-131F,2026-07-12T04:00:01.998720,15.54689421,.0001187,97.2843,214.7943,83.6843,246.8455,0,U,69483,999,602,-.39793E-1,-.2314711E-1,0
STARLINK-37873,2026-131G,2026-07-12T04:00:01.998720,15.53360733,.00013,97.2845,214.7995,98.2667,244.3588,0,U,69484,999,602,-.4224E-1,-.2337228E-1,0
