STARLINK-37577          
1 69452U 26127K   26192.95040411  .00132619  00000+0  85592-3 0  9991
2 69452  53.1585 138.9196 0001577 347.2327  12.8653 15.75235598  5314
STARLINK-37500          
1 69453U 26127L   26192.95983051  .00233717  00000+0  14858-2 0  9995
2 69453  53.1560 138.9787 0000646  98.4124 261.6970 15.75258705  5311
STARLINK-37575          
1 69454U 26127M   26192.94618713  .00141259  00000+0  90882-3 0  9996
2 69454  53.1573 138.8900 0001623 211.7690 148.3232 15.75277418  5310
STARLINK-37642          
1 69455U 26127N   26192.45677875  .00420859  00000+0  26126-2 0  9992
2 69455  53.1549 141.5344 0000565  72.0121 288.0961 15.75261251  5238
STARLINK-37513          
1 69456U 26127P   26192.97300340  .00152530  00000+0  97771-3 0  9993
2 69456  53.1584 138.3308 0002341  29.6689 330.4464 15.75322877  5325
STARLINK-37563          
1 69457U 26127Q   26192.37971032  .00215729  00000+0  13697-2 0  9994
2 69457  53.1584 141.7568 0001330  77.3260 282.7909 15.75341887  5228
STARLINK-37565          
1 69458U 26127R   26193.00476387  .00150661  00000+0  96892-3 0  9991
2 69458  53.1563 138.5389 0000633  22.2683 337.8364 15.75254691  5328
STARLINK-37498          
1 69459U 26127S   26193.21327551  .00135530  00000+0  87287-3 0  9999
2 69459  53.1555 137.7159 0001299 142.1616 217.9496 15.75273627  5350
STARLINK-37384          
1 69460U 26127T   26192.88241651  .00254288  00000+0  16042-2 0  9991
2 69460  53.1580 139.2003 0001283 122.6778 237.4367 15.75373230  5300
STARLINK-37707          
1 69461U 26127U   26192.24374593  .00209857  00000+0  13364-2 0  9990
2 69461  53.1587 142.3254 0000888  74.9556 285.1563 15.75290685  5203
STARLINK-37525          
1 69462U 26127V   26193.00023211  .00095099  00000+0  61795-3 0  9997
2 69462  53.1571 138.5081 0000879  70.6826 289.4290 15.75225408  5323
STARLINK-37526          
1 69463U 26127W   26193.16668980 -.00070046  00000+0 -45621-3 0  9990
2 69463  53.1560 137.6324 0001336  69.7046 178.7981 15.75255441  6096
STARLINK-37574          
1 69464U 26127X   26192.23920765  .00185422  00000+0  11849-2 0  9997
2 69464  53.1562 142.2931 0001310  45.0410 315.0716 15.75287866  5209
STARLINK-37535          
1 69465U 26127Y   26192.99569065  .00254132  00000+0  16040-2 0  9996
2 69465  53.1568 138.4754 0001551 145.3769 214.7353 15.75362129  5325
STARLINK-37583          
1 69466U 26127Z   26192.96878964  .00132200  00000+0  85187-3 0  9995
2 69466  53.1572 138.2965 0001497 102.0806 258.0382 15.75273411  5322
STARLINK-37546          
1 69467U 26127AA  26192.99148223  .00161041  00000+0  10356-2 0  9997
2 69467  53.1562 138.4465 0001074  80.6841 279.4301 15.75222533  5327
STARLINK-37532          
1 69468U 26127AB  26192.95517198  .00131899  00000+0  84849-3 0  9992
2 69468  53.1596 138.2056 0001267 121.4831 238.6313 15.75313505  5326
STARLINK-37708          
1 69469U 26127AC  26192.35668228  .00212973  00000+0  13496-2 0  9990
2 69469  53.1585 141.5820 0005180 172.2400 187.8702 15.75383658  5227
STARLINK-37686          
1 69470U 26127AD  26193.05039109  .00254712  00000+0  16045-2 0  9990
2 69470  53.1570 138.1005 0000891 132.8740 227.2355 15.75405507  5336
STARLINK-37451          
1 69471U 26127AE  26193.16507803 -.01094659  00000+0 -67003-2 0  9999
2 69471  53.1575 136.6527 0002987   4.5970 355.5078 15.79063196  5360
DTC TEST OBJECT A       
1 69472U 26128A   26192.97840120  .00005634  00000+0  94363-4 0  9994
2 69472  54.9997 190.6573 0011416   2.8583 357.2515 15.53499886  5082
DTC TEST OBJECT B       
1 69473U 26128B   26178.37654890  .00024134  00000+0  33565-3 0  9992
2 69473  55.0021 257.9040 0009934 325.3113  34.7274 15.56860342  2801
TJS-25                  
1 69474U 26129A   26192.80260250 -.00000360  00000+0  00000+0 0  9991
2 69474   5.9573 330.3205 0002706 285.1874  83.3192  1.00273302   315
STARLINK-37816          
1 69478U 26131A   26193.16668980 -.00021161  00000+0 -38852-3 0  9993
2 69478  97.2840 214.7480 0001544  86.8738 142.8037 15.49183896  6023
STARLINK-37878          
1 69479U 26131B   26193.16668980 -.02504732  00000+0 -39987-1 0  9994
2 69479  97.2844 214.7958 0001338 118.3584 215.7024 15.56990707  4871
STARLINK-37817          
1 69480U 26131C   26193.16668980 -.02469373  00000+0 -40077-1 0  9999
2 69480  97.2846 214.8152 0001111  88.2636 290.0344 15.56495668  6020
STARLINK-37727          
1 69481U 26131D   26193.16668980 -.00021105  00000+0 -38771-3 0  9995
2 69481  97.2836 214.7501 0001018 106.5172 127.5189 15.49169104  6028
STARLINK-37814          
1 69482U 26131E   26193.16668980 -.02458064  00000+0 -40600-1 0  9998
2 69482  97.2840 214.8125 0001267  90.9626 281.4222 15.56004430  6029
STARLINK-37869          
1 69483U 26131F   26193.16668980 -.02314711  00000+0 -39793-1 0  9990
2 69483  97.2843 214.7943 0001187  83.6843 246.8455 15.54689421  6021
STARLINK-37873          
1 69484U 26131G   26193.16668980 -.02337228  00000+0 -42240-1 0  9990
2 69484  97.2845 214.7995 0001300  98.2667 244.3588 15.53360733  6025
